[
    {
        "Altitude(m)": 607886.6848926463,
        "Argument of Periapsis(deg)": 0.0,
        "Eccentricity": 0.0,
        "Inclination(deg)": 60.0,
        "Latitude(deg)": 40.998425896664706,
        "Longitude(deg)": -145.02697360968074,
        "Mean Anomaly(deg)": 49.09089999999999,
        "RAAN(deg)": 285.0,
        "Satellite Name": "Test1 1257",
        "Satellite Number": 1257,
        "Semi-Major Axis(m)": 6980739.136638005,
        "Time(s)": 0
    },
    {
        "Altitude(m)": 607987.5987436705,
        "Argument of Periapsis(deg)": 0.00010418945913296404,
        "Eccentricity": 0.0,
        "Inclination(deg)": 60.0,
        "Latitude(deg)": 41.46351549773881,
        "Longitude(deg)": -144.52274510352117,
        "Mean Anomaly(deg)": 49.711006145461795,
        "RAAN(deg)": 284.9995799508602,
        "Satellite Name": "Test1 1257",
        "Satellite Number": 1257,
        "Semi-Major Axis(m)": 6980739.136638005,
        "Time(s)": 10
    }
]